ONEWEB-0230             
1 48769U 21045C   23312.91574912 -.00000784  00000+0 -21174-2 0  9992
2 48769  87.8965  88.6331 0001085  92.6285 267.4969 13.15566443119590
ONEWEB-0237             
1 48770U 21045D   23312.90464551  .00000094  00000+0  21535-3 0  9994
2 48770  87.8979  88.5546 0001131  81.5561 278.5698 13.15554384119313
ONEWEB-0235             
1 48771U 21045E   23312.87930435  .00000900  00000+0  23577-2 0  9993
2 48771  87.8971  88.5881 0001141  67.5865 292.5386 13.15544416119304
ONEWEB-0242             
1 48772U 21045F   23312.87295702 -.00000073  00000+0 -22869-3 0  9992
2 48772  87.8970  88.5791 0001429  87.7109 272.4185 13.15547441119347
ONEWEB-0241             
1 48773U 21045G   23312.86027025 -.00000075  00000+0 -23397-3 0  9992
2 48773  87.8982  88.6078 0001050 105.5681 254.5566 13.15542587119254
ONEWEB-0243             
1 48774U 21045H   23312.89196813  .00000228  00000+0  57267-3 0  9999
2 48774  87.8973  88.5593 0001365  83.2450 276.8835 13.15541414119288
ONEWEB-0222             
1 48775U 21045J   23312.88245242 -.00000212  00000+0 -59646-3 0  9998
2 48775  87.8970  88.5915 0001456  92.0488 268.0809 13.15555906119324
ONEWEB-0244             
1 48776U 21045K   23312.90147975  .00000379  00000+0  97355-3 0  9997
2 48776  87.8964  88.5689 0001814  72.1957 287.9371 13.15556978119890
